{
    "links": {
        "self": "http://www.neowsapp.com/rest/v1/neo/3986776?api_key=iIulBulltgU6a56xZRHN4H3l9WmuAYTsLGpBGhQ2"
    },
    "id": "3986776",
    "neo_reference_id": "3986776",
    "name": "(2020 BY1)",
    "designation": "2020 BY1",
    "nasa_jpl_url": "http://ssd.jpl.nasa.gov/sbdb.cgi?sstr=3986776",
    "absolute_magnitude_h": 26.38,
    "estimated_diameter": {
        "kilometers": {
            "estimated_diameter_min": 0.0140784543,
            "estimated_diameter_max": 0.0314803809
        },
        "meters": {
            "estimated_diameter_min": 14.0784543386,
            "estimated_diameter_max": 31.4803809193
        },
        "miles": {
            "estimated_diameter_min": 0.0087479433,
            "estimated_diameter_max": 0.0195609958
        },
        "feet": {
            "estimated_diameter_min": 46.1891561324,
            "estimated_diameter_max": 103.2820929354
        }
    },
    "is_potentially_hazardous_asteroid": false,
    "close_approach_data": [
        {
            "close_approach_date": "2020-01-16",
            "close_approach_date_full": "2020-Jan-16 23:46",
            "epoch_date_close_approach": 1579218360000,
            "relative_velocity": {
                "kilometers_per_second": "16.8373681866",
                "kilometers_per_hour": "60614.5254716207",
                "miles_per_hour": "37663.508896519"
            },
            "miss_distance": {
                "astronomical": "0.0107599664",
                "lunar": "4.1856269296",
                "kilometers": "1609668.054711568",
                "miles": "1000201.3492449184"
            },
            "orbiting_body": "Earth"
        }
    ],
    "orbital_data": {
        "orbit_id": "11",
        "orbit_determination_date": "2020-02-03 05:39:08",
        "first_observation_date": "2020-01-20",
        "last_observation_date": "2020-02-02",
        "data_arc_in_days": 13,
        "observations_used": 80,
        "orbit_uncertainty": "7",
        "minimum_orbit_intersection": ".00328954",
        "jupiter_tisserand_invariant": "3.518",
        "epoch_osculation": "2459000.5",
        "eccentricity": ".6376211185471359",
        "semi_major_axis": "2.033854985016397",
        "inclination": "4.646342950552132",
        "ascending_node_longitude": "297.5402620289019",
        "orbital_period": "1059.444969681287",
        "perihelion_distance": ".7370260945075735",
        "perihelion_argument": "108.4944155037104",
        "aphelion_distance": "3.33068387552522",
        "perihelion_time": "2458822.617801124002",
        "mean_anomaly": "60.44447180170561",
        "mean_motion": ".3398005656757225",
        "equinox": "J2000",
        "orbit_class": {
            "orbit_class_type": "APO",
            "orbit_class_description": "Near-Earth asteroid orbits which cross the Earth’s orbit similar to that of 1862 Apollo",
            "orbit_class_range": "a (semi-major axis) > 1.0 AU; q (perihelion) < 1.017 AU"
        }
    },
    "is_sentry_object": false
}